ONEWEB-0568             
1 56062U 23043S   26062.07118770 -.00001158  00000+0 -30646-2 0  9995
2 56062  87.9005 249.8822 0001774  85.2500 274.8834 13.16582851145011
ONEWEB-0574             
1 56063U 23043T   26062.06577137  .00000029  00000+0  38790-4 0  9995
2 56063  87.9177 265.1289 0001452  87.1455 272.9845 13.21825440144259
ONEWEB-0575             
1 56064U 23043U   26062.06483524  .00000040  00000+0  71588-4 0  9997
2 56064  87.9000 249.8808 0001282  79.9965 280.1311 13.16593794145008
ONEWEB-0576             
1 56065U 23043V   26062.04583916  .00000097  00000+0  21933-3 0  9992
2 56065  87.9003 249.8884 0001403  86.6218 273.5074 13.16592923144999
ONEWEB-0577             
1 56066U 23043W   26062.05217120  .00000099  00000+0  22524-3 0  9994
2 56066  87.9004 249.8859 0000869  74.1008 286.0218 13.16593176145022
ONEWEB-0578             
1 56067U 23043X   26062.05259360  .00000093  00000+0  19440-3 0  9994
2 56067  87.9168 265.1387 0001715  81.0872 279.0456 13.21826902144216
ONEWEB-0579             
1 56068U 23043Y   26062.11842678  .00000106  00000+0  22505-3 0  9993
2 56068  87.9175 265.1152 0001564 100.4167 259.7143 13.21826172144239
ONEWEB-0581             
1 56069U 23043Z   26062.05851049 -.00000004  00000+0 -42972-4 0  9999
2 56069  87.9002 249.8962 0001022  85.3046 274.8202 13.16593647144992
ONEWEB-0609             
1 56070U 23043AA  26062.08378012 -.00000051  00000+0 -16826-3 0  9998
2 56070  87.8945 280.4036 0001658  88.0418 272.0902 13.15547215142488
ONEWEB-0613             
1 56071U 23043AB  26062.15508557 -.00000054  00000+0 -17727-3 0  9990
2 56071  87.8947 280.4001 0001641  96.3665 263.7652 13.15547218142494
ONEWEB-0630             
1 56072U 23043AC  26062.15033362 -.00000022  00000+0 -92710-4 0  9999
2 56072  87.8943 280.3709 0001592  96.3790 263.7522 13.15548034142481
ONEWEB-0632             
1 56073U 23043AD  26062.14557828  .00000108  00000+0  25182-3 0  9998
2 56073  87.8945 280.3894 0001352  86.1569 273.9716 13.15547094142487
ONEWEB-0633             
1 56074U 23043AE  26062.13924009  .00000180  00000+0  44507-3 0  9999
2 56074  87.8958 280.3574 0001822  99.5423 260.5914 13.15547360142462
ONEWEB-0634             
1 56075U 23043AF  26062.12497868  .00000237  00000+0  59679-3 0  9996
2 56075  87.8946 280.4096 0001867  84.3515 275.7828 13.15547233142453
ONEWEB-0635             
1 56076U 23043AG  26062.12022309  .00000086  00000+0  19364-3 0  9990
2 56076  87.8949 280.3642 0001271  84.2827 275.8448 13.15547083142482
ONEWEB-0636             
1 56077U 23043AH  26062.11230142  .00000074  00000+0  16270-3 0  9996
2 56077  87.8946 280.3800 0001344  84.1431 275.9852 13.15547236142465
ONEWEB-0637             
1 56078U 23043AJ  26062.10597105 -.00000005  00000+0 -48181-4 0  9994
2 56078  87.8947 280.3991 0001555  74.8512 285.2790 13.15547746142481
