[{"OBJECT_NAME":"ONEWEB-0568","OBJECT_ID":"2023-043S","EPOCH":"2026-03-03T01:42:30.617280","MEAN_MOTION":13.16582851,"ECCENTRICITY":0.0001774,"INCLINATION":87.9005,"RA_OF_ASC_NODE":249.8822,"ARG_OF_PERICENTER":85.25,"MEAN_ANOMALY":274.8834,"EPHEMERIS_TYPE":0,"CLASSIFICATION_TYPE":"U","NORAD_CAT_ID":56062,"ELEMENT_SET_NO":999,"REV_AT_EPOCH":14501,"BSTAR":-0.0030646,"MEAN_MOTION_DOT":-1.158e-5,"MEAN_MOTION_DDOT":0},{"OBJECT_NAME":"ONEWEB-0574","OBJECT_ID":"2023-043T","EPOCH":"2026-03-03T01:34:42.646368","MEAN_MOTION":13.2182544,"ECCENTRICITY":0.0001452,"INCLINATION":87.9177,"RA_OF_ASC_NODE":265.1289,"ARG_OF_PERICENTER":87.1455,"MEAN_ANOMALY":272.9845,"EPHEMERIS_TYPE":0,"CLASSIFICATION_TYPE":"U","NORAD_CAT_ID":56063,"ELEMENT_SET_NO":999,"REV_AT_EPOCH":14425,"BSTAR":3.879e-5,"MEAN_MOTION_DOT":2.9e-7,"MEAN_MOTION_DDOT":0},{"OBJECT_NAME":"ONEWEB-0575","OBJECT_ID":"2023-043U","EPOCH":"2026-03-03T01:33:21.764736","MEAN_MOTION":13.16593794,"ECCENTRICITY":0.0001282,"INCLINATION":87.9,"RA_OF_ASC_NODE":249.8808,"ARG_OF_PERICENTER":79.9965,"MEAN_ANOMALY":280.1311,"EPHEMERIS_TYPE":0,"CLASSIFICATION_TYPE":"U","NORAD_CAT_ID":56064,"ELEMENT_SET_NO":999,"REV_AT_EPOCH":14500,"BSTAR":7.1588e-5,"MEAN_MOTION_DOT":4.0e-7,"MEAN_MOTION_DDOT":0},{"OBJECT_NAME":"ONEWEB-0576","OBJECT_ID":"2023-043V","EPOCH":"2026-03-03T01:06:00.503424","MEAN_MOTION":13.16592923,"ECCENTRICITY":0.0001403,"INCLINATION":87.9003,"RA_OF_ASC_NODE":249.8884,"ARG_OF_PERICENTER":86.6218,"MEAN_ANOMALY":273.5074,"EPHEMERIS_TYPE":0,"CLASSIFICATION_TYPE":"U","NORAD_CAT_ID":56065,"ELEMENT_SET_NO":999,"REV_AT_EPOCH":14499,"BSTAR":0.00021933,"MEAN_MOTION_DOT":9.7e-7,"MEAN_MOTION_DDOT":0},{"OBJECT_NAME":"ONEWEB-0577","OBJECT_ID":"2023-043W","EPOCH":"2026-03-03T01:15:07.591680","MEAN_MOTION":13.16593176,"ECCENTRICITY":8.69e-5,"INCLINATION":87.9004,"RA_OF_ASC_NODE":249.8859,"ARG_OF_PERICENTER":74.1008,"MEAN_ANOMALY":286.0218,"EPHEMERIS_TYPE":0,"CLASSIFICATION_TYPE":"U","NORAD_CAT_ID":56066,"ELEMENT_SET_NO":999,"REV_AT_EPOCH":14502,"BSTAR":0.00022524,"MEAN_MOTION_DOT":9.9e-7,"MEAN_MOTION_DDOT":0},{"OBJECT_NAME":"ONEWEB-0578","OBJECT_ID":"2023-043X","EPOCH":"2026-03-03T01:15:44.087040","MEAN_MOTION":13.21826902,"ECCENTRICITY":0.0001715,"INCLINATION":87.9168,"RA_OF_ASC_NODE":265.1387,"ARG_OF_PERICENTER":81.0872,"MEAN_ANOMALY":279.0456,"EPHEMERIS_TYPE":0,"CLASSIFICATION_TYPE":"U","NORAD_CAT_ID":56067,"ELEMENT_SET_NO":999,"REV_AT_EPOCH":14421,"BSTAR":0.0001944,"MEAN_MOTION_DOT":9.3e-7,"MEAN_MOTION_DDOT":0},{"OBJECT_NAME":"ONEWEB-0579","OBJECT_ID":"2023-043Y","EPOCH":"2026-03-03T02:50:32.073792","MEAN_MOTION":13.21826172,"ECCENTRICITY":0.0001564,"INCLINATION":87.9175,"RA_OF_ASC_NODE":265.1152,"ARG_OF_PERICENTER":100.4167,"MEAN_ANOMALY":259.7143,"EPHEMERIS_TYPE":0,"CLASSIFICATION_TYPE":"U","NORAD_CAT_ID":56068,"ELEMENT_SET_NO":999,"REV_AT_EPOCH":14423,"BSTAR":0.00022505,"MEAN_MOTION_DOT":1.06e-6,"MEAN_MOTION_DDOT":0},{"OBJECT_NAME":"ONEWEB-0581","OBJECT_ID":"2023-043Z","EPOCH":"2026-03-03T01:24:15.306336","MEAN_MOTION":13.16593647,"ECCENTRICITY":0.0001022,"INCLINATION":87.9002,"RA_OF_ASC_NODE":249.8962,"ARG_OF_PERICENTER":85.3046,"MEAN_ANOMALY":274.8202,"EPHEMERIS_TYPE":0,"CLASSIFICATION_TYPE":"U","NORAD_CAT_ID":56069,"ELEMENT_SET_NO":999,"REV_AT_EPOCH":14499,"BSTAR":-4.2972e-5,"MEAN_MOTION_DOT":-4.0e-8,"MEAN_MOTION_DDOT":0},{"OBJECT_NAME":"ONEWEB-0609","OBJECT_ID":"2023-043AA","EPOCH":"2026-03-03T02:00:38.602368","MEAN_MOTION":13.15547215,"ECCENTRICITY":0.0001658,"INCLINATION":87.8945,"RA_OF_ASC_NODE":280.4036,"ARG_OF_PERICENTER":88.0418,"MEAN_ANOMALY":272.0902,"EPHEMERIS_TYPE":0,"CLASSIFICATION_TYPE":"U","NORAD_CAT_ID":56070,"ELEMENT_SET_NO":999,"REV_AT_EPOCH":14248,"BSTAR":-0.00016826,"MEAN_MOTION_DOT":-5.1e-7,"MEAN_MOTION_DDOT":0},{"OBJECT_NAME":"ONEWEB-0613","OBJECT_ID":"2023-043AB","EPOCH":"2026-03-03T03:43:19.393248","MEAN_MOTION":13.15547218,"ECCENTRICITY":0.0001641,"INCLINATION":87.8947,"RA_OF_ASC_NODE":280.4001,"ARG_OF_PERICENTER":96.3665,"MEAN_ANOMALY":263.7652,"EPHEMERIS_TYPE":0,"CLASSIFICATION_TYPE":"U","NORAD_CAT_ID":56071,"ELEMENT_SET_NO":999,"REV_AT_EPOCH":14249,"BSTAR":-0.00017727,"MEAN_MOTION_DOT":-5.4e-7,"MEAN_MOTION_DDOT":0},{"OBJECT_NAME":"ONEWEB-0630","OBJECT_ID":"2023-043AC","EPOCH":"2026-03-03T03:36:28.824768","MEAN_MOTION":13.15548034,"ECCENTRICITY":0.0001592,"INCLINATION":87.8943,"RA_OF_ASC_NODE":280.3709,"ARG_OF_PERICENTER":96.379,"MEAN_ANOMALY":263.7522,"EPHEMERIS_TYPE":0,"CLASSIFICATION_TYPE":"U","NORAD_CAT_ID":56072,"ELEMENT_SET_NO":999,"REV_AT_EPOCH":14248,"BSTAR":-9.271e-5,"MEAN_MOTION_DOT":-2.2e-7,"MEAN_MOTION_DDOT":0},{"OBJECT_NAME":"ONEWEB-0632","OBJECT_ID":"2023-043AD","EPOCH":"2026-03-03T03:29:37.963392","MEAN_MOTION":13.15547094,"ECCENTRICITY":0.0001352,"INCLINATION":87.8945,"RA_OF_ASC_NODE":280.3894,"ARG_OF_PERICENTER":86.1569,"MEAN_ANOMALY":273.9716,"EPHEMERIS_TYPE":0,"CLASSIFICATION_TYPE":"U","NORAD_CAT_ID":56073,"ELEMENT_SET_NO":999,"REV_AT_EPOCH":14248,"BSTAR":0.00025182,"MEAN_MOTION_DOT":1.08e-6,"MEAN_MOTION_DDOT":0},{"OBJECT_NAME":"ONEWEB-0633","OBJECT_ID":"2023-043AE","EPOCH":"2026-03-03T03:20:30.343776","MEAN_MOTION":13.1554736,"ECCENTRICITY":0.0001822,"INCLINATION":87.8958,"RA_OF_ASC_NODE":280.3574,"ARG_OF_PERICENTER":99.5423,"MEAN_ANOMALY":260.5914,"EPHEMERIS_TYPE":0,"CLASSIFICATION_TYPE":"U","NORAD_CAT_ID":56074,"ELEMENT_SET_NO":999,"REV_AT_EPOCH":14246,"BSTAR":0.00044507,"MEAN_MOTION_DOT":1.8e-6,"MEAN_MOTION_DDOT":0},{"OBJECT_NAME":"ONEWEB-0634","OBJECT_ID":"2023-043AF","EPOCH":"2026-03-03T02:59:58.157952","MEAN_MOTION":13.15547233,"ECCENTRICITY":0.0001867,"INCLINATION":87.8946,"RA_OF_ASC_NODE":280.4096,"ARG_OF_PERICENTER":84.3515,"MEAN_ANOMALY":275.7828,"EPHEMERIS_TYPE":0,"CLASSIFICATION_TYPE":"U","NORAD_CAT_ID":56075,"ELEMENT_SET_NO":999,"REV_AT_EPOCH":14245,"BSTAR":0.00059679,"MEAN_MOTION_DOT":2.37e-6,"MEAN_MOTION_DDOT":0},{"OBJECT_NAME":"ONEWEB-0635","OBJECT_ID":"2023-043AG","EPOCH":"2026-03-03T02:53:07.274976","MEAN_MOTION":13.15547083,"ECCENTRICITY":0.0001271,"INCLINATION":87.8949,"RA_OF_ASC_NODE":280.3642,"ARG_OF_PERICENTER":84.2827,"MEAN_ANOMALY":275.8448,"EPHEMERIS_TYPE":0,"CLASSIFICATION_TYPE":"U","NORAD_CAT_ID":56076,"ELEMENT_SET_NO":999,"REV_AT_EPOCH":14248,"BSTAR":0.00019364,"MEAN_MOTION_DOT":8.6e-7,"MEAN_MOTION_DDOT":0},{"OBJECT_NAME":"ONEWEB-0636","OBJECT_ID":"2023-043AH","EPOCH":"2026-03-03T02:41:42.842688","MEAN_MOTION":13.15547236,"ECCENTRICITY":0.0001344,"INCLINATION":87.8946,"RA_OF_ASC_NODE":280.38,"ARG_OF_PERICENTER":84.1431,"MEAN_ANOMALY":275.9852,"EPHEMERIS_TYPE":0,"CLASSIFICATION_TYPE":"U","NORAD_CAT_ID":56077,"ELEMENT_SET_NO":999,"REV_AT_EPOCH":14246,"BSTAR":0.0001627,"MEAN_MOTION_DOT":7.4e-7,"MEAN_MOTION_DDOT":0},{"OBJECT_NAME":"ONEWEB-0637","OBJECT_ID":"2023-043AJ","EPOCH":"2026-03-03T02:32:35.898720","MEAN_MOTION":13.15547746,"ECCENTRICITY":0.0001555,"INCLINATION":87.8947,"RA_OF_ASC_NODE":280.3991,"ARG_OF_PERICENTER":74.8512,"MEAN_ANOMALY":285.279,"EPHEMERIS_TYPE":0,"CLASSIFICATION_TYPE":"U","NORAD_CAT_ID":56078,"ELEMENT_SET_NO":999,"REV_AT_EPOCH":14248,"BSTAR":-4.8181e-5,"MEAN_MOTION_DOT":-5.0e-8,"MEAN_MOTION_DDOT":0}]
